,zip,primary_city,county,state,County#,ZCTA5CE10,area-sqm
0,50001,ACKWORTH,Warren,IA,91,50001,62796656
1,50002,ADAIR,Guthrie,IA,39,50002,279202219
2,50003,ADEL,Dallas,IA,25,50003,298086291
3,50005,ALBION,Marshall,IA,64,50005,69623573
4,50006,ALDEN,Hardin,IA,42,50006,317745150
5,50007,ALLEMAN,Polk,IA,77,50007,13782897
6,50008,ALLERTON,Wayne,IA,93,50008,220623573
7,50009,ALTOONA,Polk,IA,77,50009,65207113
8,50010,AMES,Story,IA,85,50010,155294118
9,50011,AMES,Story,IA,85,50011,125094
10,50012,AMES,Story,IA,85,50012,1982622
11,50012,AMES,Story,IA,85,50012,1982622
12,50014,AMES,Story,IA,85,50014,144826088
13,50020,ANITA,Cass,IA,15,50020,249128489
14,50021,ANKENY,Polk,IA,77,50021,66725924
15,50022,ATLANTIC,Cass,IA,15,50022,431883311
16,50023,ANKENY,Polk,IA,77,50023,57424136
17,50025,AUDUBON,Audubon,IA,5,50025,507431421
18,50026,BAGLEY,Guthrie,IA,39,50026,142869501
19,50027,BARNES CITY,Mahaska,IA,62,50027,72891730
20,50028,BAXTER,Jasper,IA,50,50028,114933651
21,50029,BAYARD,Guthrie,IA,39,50029,105038360
22,50032,BERWICK,Polk,IA,77,50032,955390
23,50033,BEVINGTON,Warren,IA,91,50033,288201
24,50034,BLAIRSBURG,Hamilton,IA,40,50034,163484203
25,50035,BONDURANT,Polk,IA,77,50035,116898150
26,50036,BOONE,Boone,IA,8,50036,505063491
27,50038,BOONEVILLE,Dallas,IA,25,50038,8874239
28,50039,BOUTON,Dallas,IA,25,50039,60662047
29,50041,BRADFORD,Franklin,IA,35,50041,1101427
30,50042,BRAYTON,Audubon,IA,5,50042,84162590
31,50044,BUSSEY,Marion,IA,63,50044,118473056
32,50046,CAMBRIDGE,Story,IA,85,50046,119973352
33,50047,CARLISLE,Warren,IA,91,50047,152159628
34,50048,CASEY,Guthrie,IA,39,50048,226573270
35,50049,CHARITON,Lucas,IA,59,50049,523124656
36,50050,CHURDAN,Greene,IA,37,50050,197706628
37,50051,CLEMONS,Marshall,IA,64,50051,66573089
38,50052,CLIO,Wayne,IA,93,50052,50940630
39,50054,COLFAX,Jasper,IA,50,50054,152872278
40,50055,COLLINS,Story,IA,85,50055,126340521
41,50056,COLO,Story,IA,85,50056,149192377
42,50057,COLUMBIA,Marion,IA,63,50057,52183538
43,50058,COON RAPIDS,Carroll,IA,14,50058,364231967
44,50060,CORYDON,Wayne,IA,93,50060,453610186
45,50061,CUMMING,Warren,IA,91,50061,81699043
46,50062,MELCHER-DALLAS,Marion,IA,63,50062,80104319
47,50063,DALLAS CENTER,Dallas,IA,25,50063,170532757
48,50064,DANA,Greene,IA,37,50064,40418909
49,50065,DAVIS CITY,Decatur,IA,27,50065,147902989
50,50066,DAWSON,Dallas,IA,25,50066,64732191
51,50067,DECATUR,Decatur,IA,27,50067,87093517
52,50068,DERBY,Lucas,IA,59,50068,114749633
53,50069,DE SOTO,Dallas,IA,25,50069,13262492
54,50070,DEXTER,Dallas,IA,25,50070,171070769
55,50071,DOWS,Wright,IA,99,50071,293114182
56,50072,EARLHAM,Madison,IA,61,50072,228908869
57,50073,ELKHART,Polk,IA,77,50073,67420142
58,50074,ELLSTON,Ringgold,IA,80,50074,127815922
59,50075,ELLSWORTH,Hamilton,IA,40,50075,119369391
60,50076,EXIRA,Audubon,IA,5,50076,290651382
61,50078,FERGUSON,Marshall,IA,64,50078,660699
62,50101,GALT,Wright,IA,99,50101,25431226
63,50102,GARDEN CITY,Hardin,IA,42,50102,1304963
64,50103,GARDEN GROVE,Decatur,IA,27,50103,157409444
65,50104,GIBSON,Keokuk,IA,54,50104,28940560
66,50105,GILBERT,Story,IA,85,50105,20560447
67,50106,GILMAN,Marshall,IA,64,50106,170141114
68,50107,GRAND JUNCTION,Greene,IA,37,50107,130433186
69,50108,GRAND RIVER,Decatur,IA,27,50108,188608107
70,50109,GRANGER,Polk,IA,77,50109,62757235
71,50111,GRIMES,Polk,IA,77,50111,71484606
72,50112,GRINNELL,Poweshiek,IA,79,50112,475672153
73,50115,GUTHRIE CENTER,Guthrie,IA,39,50115,441185334
74,50116,HAMILTON,Marion,IA,63,50116,44071754
75,50117,HAMLIN,Audubon,IA,5,50117,71657180
76,50118,HARTFORD,Warren,IA,91,50118,51466255
77,50119,HARVEY,Marion,IA,63,50119,40354632
78,50120,HAVERHILL,Marshall,IA,64,50120,43941350
79,50122,HUBBARD,Hardin,IA,42,50122,218621364
80,50123,HUMESTON,Wayne,IA,93,50123,204584834
81,50124,HUXLEY,Story,IA,85,50124,54098688
82,50125,INDIANOLA,Warren,IA,91,50125,426521944
83,50126,IOWA FALLS,Hardin,IA,42,50126,351874830
84,50127,IRA,Jasper,IA,50,50127,28260
85,50128,JAMAICA,Guthrie,IA,39,50128,75898812
86,50129,JEFFERSON,Greene,IA,37,50129,435658650
87,50130,JEWELL,Hamilton,IA,40,50130,171933052
88,50131,JOHNSTON,Polk,IA,77,50131,64666939
89,50132,KAMRAR,Hamilton,IA,40,50132,74609258
90,50133,KELLERTON,Ringgold,IA,80,50133,196966937
91,50134,KELLEY,Story,IA,85,50134,48427675
92,50135,KELLOGG,Jasper,IA,50,50135,195278764
93,50136,KESWICK,Keokuk,IA,54,50136,100632209
94,50138,KNOXVILLE,Marion,IA,63,50138,461827288
95,50139,LACONA,Warren,IA,91,50139,229508368
96,50140,LAMONI,Decatur,IA,27,50140,241678133
97,50141,LAUREL,Marshall,IA,64,50141,93777481
98,50142,LE GRAND,Marshall,IA,64,50142,2566675
99,50143,LEIGHTON,Mahaska,IA,62,50143,92958086
100,50144,LEON,Decatur,IA,27,50144,362605062
101,50146,LINDEN,Dallas,IA,25,50146,75845999
102,50147,LINEVILLE,Wayne,IA,93,50147,187491745
103,50148,LISCOMB,Marshall,IA,64,50148,51098115
104,50149,LORIMOR,Union,IA,88,50149,213449691
105,50150,LOVILIA,Monroe,IA,68,50150,148536678
106,50151,LUCAS,Lucas,IA,59,50151,205563843
107,50153,LYNNVILLE,Jasper,IA,50,50153,80372194
108,50154,MC CALLSBURG,Story,IA,85,50154,53144166
109,50155,MACKSBURG,Madison,IA,61,50155,78501320
110,50156,MADRID,Boone,IA,8,50156,238724015
111,50157,MALCOM,Poweshiek,IA,79,50157,168389373
112,50158,MARSHALLTOWN,Marshall,IA,64,50158,548346934
113,50160,MARTENSDALE,Warren,IA,91,50160,965184
114,50161,MAXWELL,Story,IA,85,50161,211812219
115,50162,MELBOURNE,Marshall,IA,64,50162,132120698
116,50163,MELCHER-DALLAS,Marion,IA,63,50163,1230059
117,50164,MENLO,Guthrie,IA,39,50164,138235040
118,50165,MILLERTON,Wayne,IA,93,50165,6437634
119,50166,MILO,Warren,IA,91,50166,162522428
120,50167,MINBURN,Dallas,IA,25,50167,102610498
121,50168,MINGO,Jasper,IA,50,50168,104773461
122,50169,MITCHELLVILLE,Polk,IA,77,50169,103378565
123,50170,MONROE,Jasper,IA,50,50170,230995030
124,50171,MONTEZUMA,Poweshiek,IA,79,50171,281675684
125,50173,MONTOUR,Tama,IA,86,50173,80140704
126,50174,MURRAY,Clarke,IA,20,50174,278718495
127,50201,NEVADA,Story,IA,85,50201,300453642
128,50206,NEW PROVIDENCE,Hardin,IA,42,50206,124182004
129,50207,NEW SHARON,Mahaska,IA,62,50207,366588282
130,50208,NEWTON,Jasper,IA,50,50208,426046663
131,50210,NEW VIRGINIA,Warren,IA,91,50210,196767136
132,50211,NORWALK,Warren,IA,91,50211,147182178
133,50212,OGDEN,Boone,IA,8,50212,352230522
134,50213,OSCEOLA,Clarke,IA,20,50213,543975469
135,50214,OTLEY,Marion,IA,63,50214,102571148
136,50216,PANORA,Guthrie,IA,39,50216,145699881
137,50217,PATON,Greene,IA,37,50217,178606122
138,50218,PATTERSON,Madison,IA,61,50218,542828
139,50219,PELLA,Marion,IA,63,50219,317144262
140,50220,PERRY,Dallas,IA,25,50220,268176779
141,50222,PERU,Madison,IA,61,50222,108369441
142,50223,PILOT MOUND,Boone,IA,8,50223,76600548
143,50225,PLEASANTVILLE,Marion,IA,63,50225,217246336
144,50226,POLK CITY,Polk,IA,77,50226,109873855
145,50227,POPEJOY,Franklin,IA,35,50227,966375
146,50228,PRAIRIE CITY,Jasper,IA,50,50228,180367188
147,50229,PROLE,Warren,IA,91,50229,105616644
148,50230,RADCLIFFE,Hardin,IA,42,50230,223982113
149,50231,RANDALL,Hamilton,IA,40,50231,1065168
150,50232,REASNOR,Jasper,IA,50,50232,86762448
151,50233,REDFIELD,Dallas,IA,25,50233,130640688
152,50234,RHODES,Marshall,IA,64,50234,81236093
153,50235,RIPPEY,Greene,IA,37,50235,121134316
154,50236,ROLAND,Story,IA,85,50236,89345522
155,50237,RUNNELLS,Polk,IA,77,50237,146002809
156,50238,RUSSELL,Lucas,IA,59,50238,308904729
157,50239,SAINT ANTHONY,Marshall,IA,64,50239,44053312
158,50240,SAINT CHARLES,Madison,IA,61,50240,197714047
159,50242,SEARSBORO,Poweshiek,IA,79,50242,106954493
160,50243,SHELDAHL,Story,IA,85,50243,1425493
161,50244,SLATER,Story,IA,85,50244,57130248
162,50244,SLATER,Story,IA,85,50244,57130248
163,50246,STANHOPE,Hamilton,IA,40,50246,120153227
164,50247,STATE CENTER,Marshall,IA,64,50247,215968634
165,50248,STORY CITY,Story,IA,85,50248,211580755
166,50249,STRATFORD,Hamilton,IA,40,50249,202332923
167,50250,STUART,Adair,IA,1,50250,265060086
168,50251,SULLY,Jasper,IA,50,50251,104817095
169,50252,SWAN,Marion,IA,63,50252,22861403
170,50254,THAYER,Union,IA,88,50254,113653650
171,50255,THORNBURG,Keokuk,IA,54,50255,456756
172,50256,TRACY,Marion,IA,63,50256,70812037
173,50257,TRURO,Madison,IA,61,50257,103296613
174,50258,UNION,Hardin,IA,42,50258,139476319
175,50261,VAN METER,Madison,IA,61,50261,173242731
176,50262,VAN WERT,Decatur,IA,27,50262,83830606
177,50263,WAUKEE,Dallas,IA,25,50263,90002855
178,50264,WELDON,Decatur,IA,27,50264,174299474
179,50265,WEST DES MOINES,Polk,IA,77,50265,46466559
180,50266,WEST DES MOINES,Dallas,IA,25,50266,43060835
181,50268,WHAT CHEER,Keokuk,IA,54,50268,123524623
182,50271,WILLIAMS,Hamilton,IA,40,50271,172819803
183,50272,WILLIAMSON,Lucas,IA,59,50272,1922108
184,50273,WINTERSET,Madison,IA,61,50273,519171420
185,50274,WIOTA,Cass,IA,15,50274,130159776
186,50275,WOODBURN,Clarke,IA,20,50275,131849713
187,50276,WOODWARD,Dallas,IA,25,50276,209846960
188,50277,YALE,Guthrie,IA,39,50277,104624278
189,50278,ZEARING,Story,IA,85,50278,138864198
190,50309,DES MOINES,Polk,IA,77,50309,7776473
191,50310,DES MOINES,Polk,IA,77,50310,21123546
192,50311,DES MOINES,Polk,IA,77,50311,6511832
193,50312,DES MOINES,Polk,IA,77,50312,15051060
194,50313,DES MOINES,Polk,IA,77,50313,47635293
195,50314,DES MOINES,Polk,IA,77,50314,6629721
196,50315,DES MOINES,Polk,IA,77,50315,26560331
197,50316,DES MOINES,Polk,IA,77,50316,9302481
198,50317,DES MOINES,Polk,IA,77,50317,60041842
199,50319,DES MOINES,Polk,IA,77,50319,213707
200,50320,DES MOINES,Polk,IA,77,50320,49547031
201,50321,DES MOINES,Polk,IA,77,50321,30969186
202,50322,URBANDALE,Polk,IA,77,50322,27938267
203,50323,URBANDALE,Dallas,IA,25,50323,19984131
204,50324,WINDSOR HEIGHTS,Polk,IA,77,50324,3740280
205,50325,CLIVE,Polk,IA,77,50325,20224117
206,50327,PLEASANT HILL,Polk,IA,77,50327,49702622
207,50401,MASON CITY,Cerro Gordo,IA,17,50401,387509792
208,50420,ALEXANDER,Franklin,IA,35,50420,117256906
209,50421,BELMOND,Wright,IA,99,50421,232911303
210,50423,BRITT,Hancock,IA,41,50423,376364842
211,50424,BUFFALO CENTER,Winnebago,IA,95,50424,315854649
212,50426,CARPENTER,Mitchell,IA,66,50426,60113
213,50428,CLEAR LAKE,Cerro Gordo,IA,17,50428,316380154
214,50430,CORWITH,Hancock,IA,41,50430,160984015
215,50431,COULTER,Franklin,IA,35,50431,1936776
216,50432,CRYSTAL LAKE,Hancock,IA,41,50432,1127714
217,50433,DOUGHERTY,Cerro Gordo,IA,17,50433,125889253
218,50434,FERTILE,Worth,IA,98,50434,23487419
219,50435,FLOYD,Floyd,IA,34,50435,105304339
220,50436,FOREST CITY,Winnebago,IA,95,50436,354034151
221,50438,GARNER,Hancock,IA,41,50438,342635780
222,50439,GOODELL,Hancock,IA,41,50439,84706319
223,50440,GRAFTON,Worth,IA,98,50440,80665798
224,50441,HAMPTON,Franklin,IA,35,50441,395662654
225,50444,HANLONTOWN,Worth,IA,98,50444,55966912
226,50446,JOICE,Worth,IA,98,50446,108869780
227,50447,KANAWHA,Hancock,IA,41,50447,261433926
228,50448,KENSETT,Worth,IA,98,50448,160165797
229,50449,KLEMME,Hancock,IA,41,50449,95013046
230,50450,LAKE MILLS,Winnebago,IA,95,50450,214081289
231,50451,LAKOTA,Kossuth,IA,55,50451,164530815
232,50452,LATIMER,Franklin,IA,35,50452,127424687
233,50453,LELAND,Winnebago,IA,95,50453,114347611
234,50454,LITTLE CEDAR,Mitchell,IA,66,50454,44766360
235,50455,MC INTIRE,Mitchell,IA,66,50455,84207513
236,50456,MANLY,Worth,IA,98,50456,120430473
237,50457,MESERVEY,Cerro Gordo,IA,17,50457,88503707
238,50458,NORA SPRINGS,Floyd,IA,34,50458,190798489
239,50459,NORTHWOOD,Worth,IA,98,50459,375483499
240,50460,ORCHARD,Mitchell,IA,66,50460,93166151
241,50461,OSAGE,Mitchell,IA,66,50461,446474922
242,50464,PLYMOUTH,Cerro Gordo,IA,17,50464,61009266
243,50465,RAKE,Winnebago,IA,95,50465,9497218
244,50466,RICEVILLE,Howard,IA,45,50466,354341172
245,50467,ROCK FALLS,Cerro Gordo,IA,17,50467,709984
246,50468,ROCKFORD,Floyd,IA,34,50468,256209489
247,50469,ROCKWELL,Cerro Gordo,IA,17,50469,227879604
248,50470,ROWAN,Wright,IA,99,50470,62885229
249,50471,RUDD,Floyd,IA,34,50471,110089036
250,50472,SAINT ANSGAR,Mitchell,IA,66,50472,316417010
251,50473,SCARVILLE,Winnebago,IA,95,50473,96000513
252,50475,SHEFFIELD,Franklin,IA,35,50475,231102519
253,50476,STACYVILLE,Mitchell,IA,66,50476,101702581
254,50477,SWALEDALE,Cerro Gordo,IA,17,50477,58455862
255,50478,THOMPSON,Winnebago,IA,95,50478,191575269
256,50479,THORNTON,Cerro Gordo,IA,17,50479,150266394
257,50480,TITONKA,Kossuth,IA,55,50480,163023328
258,50482,VENTURA,Cerro Gordo,IA,17,50482,81166123
259,50483,WESLEY,Kossuth,IA,55,50483,198210428
260,50484,WODEN,Hancock,IA,41,50484,113720772
261,50501,FORT DODGE,Webster,IA,94,50501,407215780
262,50510,ALBERT CITY,Buena Vista,IA,11,50510,219732120
263,50511,ALGONA,Kossuth,IA,55,50511,321723723
264,50514,ARMSTRONG,Emmet,IA,32,50514,287766282
265,50515,AYRSHIRE,Palo Alto,IA,74,50515,96076793
266,50516,BADGER,Webster,IA,94,50516,63984856
267,50517,BANCROFT,Kossuth,IA,55,50517,198110964
268,50518,BARNUM,Webster,IA,94,50518,80803741
269,50519,BODE,Humboldt,IA,46,50519,142395653
270,50520,BRADGATE,Humboldt,IA,46,50520,62072927
271,50521,BURNSIDE,Webster,IA,94,50521,3160848
272,50522,BURT,Kossuth,IA,55,50522,176225395
273,50523,CALLENDER,Webster,IA,94,50523,109190936
274,50524,CLARE,Webster,IA,94,50524,148535431
275,50525,CLARION,Wright,IA,99,50525,363773781
276,50527,CURLEW,Palo Alto,IA,74,50527,141597255
277,50528,CYLINDER,Palo Alto,IA,74,50528,191696767
278,50529,DAKOTA CITY,Humboldt,IA,46,50529,1445412
279,50530,DAYTON,Webster,IA,94,50530,168385319
280,50531,DOLLIVER,Emmet,IA,32,50531,100449294
281,50532,DUNCOMBE,Webster,IA,94,50532,181717930
282,50533,EAGLE GROVE,Wright,IA,99,50533,258503120
283,50535,EARLY,Sac,IA,81,50535,158492375
284,50536,EMMETSBURG,Palo Alto,IA,74,50536,370232494
285,50538,FARNHAMVILLE,Calhoun,IA,13,50538,80889010
286,50539,FENTON,Kossuth,IA,55,50539,139538906
287,50540,FONDA,Pocahontas,IA,76,50540,275625728
288,50541,GILMORE CITY,Humboldt,IA,46,50541,237749663
289,50542,GOLDFIELD,Wright,IA,99,50542,172884137
290,50543,GOWRIE,Webster,IA,94,50543,212824794
291,50544,HARCOURT,Webster,IA,94,50544,75465666
292,50545,HARDY,Humboldt,IA,46,50545,97252233
293,50546,HAVELOCK,Pocahontas,IA,76,50546,137019674
294,50548,HUMBOLDT,Humboldt,IA,46,50548,323465219
295,50551,JOLLEY,Calhoun,IA,13,50551,69704315
296,50554,LAURENS,Pocahontas,IA,76,50554,232762069
297,50556,LEDYARD,Kossuth,IA,55,50556,101116000
298,50557,LEHIGH,Webster,IA,94,50557,130151481
299,50558,LIVERMORE,Humboldt,IA,46,50558,114721586
300,50559,LONE ROCK,Kossuth,IA,55,50559,102790935
301,50560,LU VERNE,Kossuth,IA,55,50560,225654488
302,50561,LYTTON,Calhoun,IA,13,50561,119358374
303,50562,MALLARD,Palo Alto,IA,74,50562,165098566
304,50563,MANSON,Calhoun,IA,13,50563,253318021
305,50565,MARATHON,Buena Vista,IA,11,50565,114004136
306,50566,MOORLAND,Webster,IA,94,50566,89865522
307,50567,NEMAHA,Sac,IA,81,50567,67326397
308,50568,NEWELL,Buena Vista,IA,11,50568,220071293
309,50569,OTHO,Webster,IA,94,50569,54889709
310,50570,OTTOSEN,Humboldt,IA,46,50570,112220748
311,50571,PALMER,Pocahontas,IA,76,50571,115641227
312,50573,PLOVER,Pocahontas,IA,76,50573,1045738
313,50574,POCAHONTAS,Pocahontas,IA,76,50574,288134473
314,50575,POMEROY,Calhoun,IA,13,50575,163446600
315,50576,REMBRANDT,Buena Vista,IA,11,50576,93051632
316,50577,RENWICK,Humboldt,IA,46,50577,106941323
317,50578,RINGSTED,Emmet,IA,32,50578,192331445
318,50579,ROCKWELL CITY,Calhoun,IA,13,50579,359119951
319,50581,ROLFE,Pocahontas,IA,76,50581,246722485
320,50582,RUTLAND,Humboldt,IA,46,50582,53572451
321,50583,SAC CITY,Sac,IA,81,50583,306359541
322,50585,SIOUX RAPIDS,Buena Vista,IA,11,50585,165291906
323,50586,SOMERS,Calhoun,IA,13,50586,91121320
324,50588,STORM LAKE,Buena Vista,IA,11,50588,368993698
325,50590,SWEA CITY,Kossuth,IA,55,50590,203980739
326,50591,THOR,Humboldt,IA,46,50591,73985552
327,50593,VARINA,Pocahontas,IA,76,50593,480019
328,50594,VINCENT,Webster,IA,94,50594,67103128
329,50595,WEBSTER CITY,Hamilton,IA,40,50595,399609138
330,50597,WEST BEND,Palo Alto,IA,74,50597,214240511
331,50598,WHITTEMORE,Kossuth,IA,55,50598,176474137
332,50599,WOOLSTOCK,Wright,IA,99,50599,133057067
333,50601,ACKLEY,Franklin,IA,35,50601,368012120
334,50602,ALLISON,Butler,IA,12,50602,207455662
335,50603,ALTA VISTA,Chickasaw,IA,19,50603,122972014
336,50604,APLINGTON,Butler,IA,12,50604,184521061
337,50605,AREDALE,Butler,IA,12,50605,38865937
338,50606,ARLINGTON,Fayette,IA,33,50606,184315162
339,50607,AURORA,Buchanan,IA,10,50607,123088687
340,50609,BEAMAN,Grundy,IA,38,50609,89218598
341,50611,BRISTOW,Butler,IA,12,50611,78763743
342,50612,BUCKINGHAM,Tama,IA,86,50612,57581068
343,50613,CEDAR FALLS,Black Hawk,IA,7,50613,329972902
344,50616,CHARLES CITY,Floyd,IA,34,50616,448105088
345,50619,CLARKSVILLE,Butler,IA,12,50619,230866230
346,50620,COLWELL,Floyd,IA,34,50620,324589
347,50621,CONRAD,Grundy,IA,38,50621,165399151
348,50622,DENVER,Bremer,IA,9,50622,64857976
349,50624,DIKE,Grundy,IA,38,50624,135187133
350,50625,DUMONT,Butler,IA,12,50625,158053593
351,50626,DUNKERTON,Black Hawk,IA,7,50626,130892804
352,50627,ELDORA,Hardin,IA,42,50627,277223505
353,50628,ELMA,Howard,IA,45,50628,289356789
354,50629,FAIRBANK,Buchanan,IA,10,50629,205328666
355,50630,FREDERICKSBURG,Chickasaw,IA,19,50630,214715992
356,50632,GARWIN,Tama,IA,86,50632,110251250
357,50632,GARWIN,Tama,IA,86,50632,110251250
358,50633,GENEVA,Franklin,IA,35,50633,103078532
359,50634,GILBERTVILLE,Black Hawk,IA,7,50634,1018252
360,50635,GLADBROOK,Tama,IA,86,50635,217592812
361,50636,GREENE,Butler,IA,12,50636,313519052
362,50638,GRUNDY CENTER,Grundy,IA,38,50638,245826479
363,50641,HAZLETON,Buchanan,IA,10,50641,123019787
364,50642,HOLLAND,Grundy,IA,38,50642,83404671
365,50643,HUDSON,Black Hawk,IA,7,50643,163108458
366,50644,INDEPENDENCE,Buchanan,IA,10,50644,372595201
367,50645,IONIA,Chickasaw,IA,19,50645,214246026
368,50647,JANESVILLE,Bremer,IA,9,50647,79065340
369,50648,JESUP,Black Hawk,IA,7,50648,223212718
370,50650,LAMONT,Buchanan,IA,10,50650,106756415
371,50651,LA PORTE CITY,Black Hawk,IA,7,50651,294627077
372,50652,LINCOLN,Tama,IA,86,50652,605668
373,50653,MARBLE ROCK,Floyd,IA,34,50653,134748744
374,50654,MASONVILLE,Delaware,IA,28,50654,136188150
375,50655,MAYNARD,Fayette,IA,33,50655,91051680
376,50658,NASHUA,Chickasaw,IA,19,50658,187097603
377,50659,NEW HAMPTON,Chickasaw,IA,19,50659,403802766
378,50660,NEW HARTFORD,Butler,IA,12,50660,100165022
379,50662,OELWEIN,Fayette,IA,33,50662,176049517
380,50664,ORAN,Fayette,IA,33,50664,95350
381,50665,PARKERSBURG,Butler,IA,12,50665,253290828
382,50666,PLAINFIELD,Bremer,IA,9,50666,140256035
383,50667,RAYMOND,Black Hawk,IA,7,50667,5217793
384,50668,READLYN,Bremer,IA,9,50668,87689572
385,50669,REINBECK,Grundy,IA,38,50669,239750053
386,50670,SHELL ROCK,Butler,IA,12,50670,148931701
387,50671,STANLEY,Buchanan,IA,10,50671,57533274
388,50672,STEAMBOAT ROCK,Hardin,IA,42,50672,94993283
389,50673,STOUT,Grundy,IA,38,50673,444167
390,50674,SUMNER,Bremer,IA,9,50674,408690075
391,50675,TRAER,Tama,IA,86,50675,287237436
392,50676,TRIPOLI,Bremer,IA,9,50676,148867149
393,50677,WAVERLY,Bremer,IA,9,50677,325186841
394,50680,WELLSBURG,Grundy,IA,38,50680,138682394
395,50681,WESTGATE,Fayette,IA,33,50681,63049395
396,50682,WINTHROP,Buchanan,IA,10,50682,220982610
397,50701,WATERLOO,Black Hawk,IA,7,50701,214718743
398,50702,WATERLOO,Black Hawk,IA,7,50702,25608490
399,50703,WATERLOO,Black Hawk,IA,7,50703,244724015
400,50707,EVANSDALE,Black Hawk,IA,7,50707,25361881
401,50801,CRESTON,Union,IA,88,50801,545028688
402,50830,AFTON,Union,IA,88,50830,306617835
403,50833,BEDFORD,Taylor,IA,87,50833,536325319
404,50835,BENTON,Ringgold,IA,80,50835,43994784
405,50836,BLOCKTON,Taylor,IA,87,50836,232828727
406,50837,BRIDGEWATER,Adair,IA,1,50837,130795854
407,50839,CARBON,Adams,IA,2,50839,1828417
408,50840,CLEARFIELD,Taylor,IA,87,50840,129948770
409,50841,CORNING,Adams,IA,2,50841,610836196
410,50842,CROMWELL,Union,IA,88,50842,674912
411,50843,CUMBERLAND,Cass,IA,15,50843,195866561
412,50845,DIAGONAL,Ringgold,IA,80,50845,285590236
413,50846,FONTANELLE,Adair,IA,1,50846,238867152
414,50847,GRANT,Montgomery,IA,69,50847,863108
415,50848,GRAVITY,Taylor,IA,87,50848,117720194
416,50849,GREENFIELD,Adair,IA,1,50849,304431532
417,50851,LENOX,Taylor,IA,87,50851,335214398
418,50853,MASSENA,Cass,IA,15,50853,195987739
419,50854,MOUNT AYR,Ringgold,IA,80,50854,350941226
420,50857,NODAWAY,Adams,IA,2,50857,131265143
421,50858,ORIENT,Adair,IA,1,50858,206995250
422,50859,PRESCOTT,Adams,IA,2,50859,206490726
423,50860,REDDING,Ringgold,IA,80,50860,115136578
424,50861,SHANNON CITY,Union,IA,88,50861,113520838
425,50862,SHARPSBURG,Taylor,IA,87,50862,56218206
426,50863,TINGLEY,Ringgold,IA,80,50863,78178667
427,50864,VILLISCA,Montgomery,IA,69,50864,377642994
428,51001,AKRON,Plymouth,IA,75,51001,360862327
429,51002,ALTA,Buena Vista,IA,11,51002,297148464
430,51003,ALTON,Sioux,IA,84,51003,144371109
431,51004,ANTHON,Woodbury,IA,97,51004,212848541
432,51005,AURELIA,Cherokee,IA,18,51005,244170260
433,51006,BATTLE CREEK,Ida,IA,47,51006,213095547
434,51007,BRONSON,Woodbury,IA,97,51007,87318034
435,51008,BRUNSVILLE,Plymouth,IA,75,51008,630646
436,51009,CALUMET,Obrien,IA,71,51009,611821
437,51010,CASTANA,Monona,IA,67,51010,176313125
438,51011,CHATSWORTH,Sioux,IA,84,51011,1275286
439,51012,CHEROKEE,Cherokee,IA,18,51012,386838104
440,51014,CLEGHORN,Cherokee,IA,18,51014,139646952
441,51016,CORRECTIONVILLE,Woodbury,IA,97,51016,262895432
442,51018,CUSHING,Woodbury,IA,97,51018,95118381
443,51019,DANBURY,Woodbury,IA,97,51019,236787928
444,51020,GALVA,Ida,IA,47,51020,140577018
445,51022,GRANVILLE,Sioux,IA,84,51022,204082524
446,51023,HAWARDEN,Sioux,IA,84,51023,271445490
447,51024,HINTON,Plymouth,IA,75,51024,232728447
448,51025,HOLSTEIN,Ida,IA,47,51025,278402985
449,51026,HORNICK,Woodbury,IA,97,51026,281235872
450,51027,IRETON,Sioux,IA,84,51027,239835719
451,51028,KINGSLEY,Plymouth,IA,75,51028,328930974
452,51029,LARRABEE,Cherokee,IA,18,51029,58631884
453,51030,LAWTON,Woodbury,IA,97,51030,153939315
454,51031,LE MARS,Plymouth,IA,75,51031,605111843
455,51033,LINN GROVE,Buena Vista,IA,11,51033,163475339
456,51034,MAPLETON,Monona,IA,67,51034,290876284
457,51035,MARCUS,Cherokee,IA,18,51035,278976810
458,51036,MAURICE,Sioux,IA,84,51036,114229271
459,51037,MERIDEN,Cherokee,IA,18,51037,61667480
460,51038,MERRILL,Plymouth,IA,75,51038,233828323
461,51039,MOVILLE,Woodbury,IA,97,51039,223159311
462,51040,ONAWA,Monona,IA,67,51040,399810225
463,51041,ORANGE CITY,Sioux,IA,84,51041,184491043
464,51044,OTO,Woodbury,IA,97,51044,89839583
465,51046,PAULLINA,Obrien,IA,71,51046,240918039
466,51047,PETERSON,Clay,IA,21,51047,200078951
467,51048,PIERSON,Woodbury,IA,97,51048,86240685
468,51049,QUIMBY,Cherokee,IA,18,51049,113097948
469,51050,REMSEN,Plymouth,IA,75,51050,353266814
470,51051,RODNEY,Monona,IA,67,51051,8740209
471,51052,SALIX,Woodbury,IA,97,51052,159659315
472,51053,SCHALLER,Sac,IA,81,51053,195513267
473,51054,SERGEANT BLUFF,Woodbury,IA,97,51054,106329025
474,51055,SLOAN,Woodbury,IA,97,51055,174692448
475,51056,SMITHLAND,Woodbury,IA,97,51056,88932213
476,51058,SUTHERLAND,Obrien,IA,71,51058,214786027
477,51060,UTE,Monona,IA,67,51060,156247108
478,51061,WASHTA,Cherokee,IA,18,51061,121628171
479,51062,WESTFIELD,Plymouth,IA,75,51062,144594267
480,51063,WHITING,Monona,IA,67,51063,162058438
481,51101,SIOUX CITY,Woodbury,IA,97,51101,3138764
482,51103,SIOUX CITY,Woodbury,IA,97,51103,27863210
483,51104,SIOUX CITY,Woodbury,IA,97,51104,20009530
484,51105,SIOUX CITY,Woodbury,IA,97,51105,15825592
485,51106,SIOUX CITY,Woodbury,IA,97,51106,81702782
486,51108,SIOUX CITY,Woodbury,IA,97,51108,116455967
487,51109,SIOUX CITY,Woodbury,IA,97,51109,49159557
488,51111,SIOUX CITY,Woodbury,IA,97,51111,17993387
489,51201,SHELDON,Obrien,IA,71,51201,295817592
490,51230,ALVORD,Lyon,IA,60,51230,64875507
491,51231,ARCHER,Obrien,IA,71,51231,73029493
492,51232,ASHTON,Osceola,IA,72,51232,156638511
493,51234,BOYDEN,Sioux,IA,84,51234,129274507
494,51235,DOON,Lyon,IA,60,51235,144971909
495,51237,GEORGE,Lyon,IA,60,51237,249759921
496,51238,HOSPERS,Sioux,IA,84,51238,118831336
497,51239,HULL,Sioux,IA,84,51239,171513941
498,51240,INWOOD,Lyon,IA,60,51240,263161609
499,51241,LARCHWOOD,Lyon,IA,60,51241,232767886
500,51242,LESTER,Lyon,IA,60,51242,1181066
501,51243,LITTLE ROCK,Lyon,IA,60,51243,139238401
502,51244,MATLOCK,Sioux,IA,84,51244,778428
503,51245,PRIMGHAR,Obrien,IA,71,51245,203413241
504,51246,ROCK RAPIDS,Lyon,IA,60,51246,424515402
505,51247,ROCK VALLEY,Sioux,IA,84,51247,289650577
506,51248,SANBORN,Obrien,IA,71,51248,214496950
507,51249,SIBLEY,Osceola,IA,72,51249,324743210
508,51250,SIOUX CENTER,Sioux,IA,84,51250,186398963
509,51301,SPENCER,Clay,IA,21,51301,406942409
510,51331,ARNOLDS PARK,Dickinson,IA,30,51331,7122510
511,51333,DICKENS,Clay,IA,21,51333,170365473
512,51334,ESTHERVILLE,Emmet,IA,32,51334,491781068
513,51338,EVERLY,Clay,IA,21,51338,189299930
514,51341,GILLETT GROVE,Clay,IA,21,51341,893950
515,51342,GRAETTINGER,Palo Alto,IA,74,51342,214231634
516,51343,GREENVILLE,Clay,IA,21,51343,65322005
517,51345,HARRIS,Osceola,IA,72,51345,146304432
518,51346,HARTLEY,Obrien,IA,71,51346,377358581
519,51347,LAKE PARK,Dickinson,IA,30,51347,223928450
520,51350,MELVIN,Osceola,IA,72,51350,112104258
521,51351,MILFORD,Dickinson,IA,30,51351,278931975
522,51354,OCHEYEDAN,Osceola,IA,72,51354,227662269
523,51355,OKOBOJI,Dickinson,IA,30,51355,11052693
524,51357,ROYAL,Clay,IA,21,51357,108592195
525,51358,RUTHVEN,Palo Alto,IA,74,51358,202954357
526,51360,SPIRIT LAKE,Dickinson,IA,30,51360,334993966
527,51363,SUPERIOR,Dickinson,IA,30,51363,1050241
528,51364,TERRIL,Dickinson,IA,30,51364,167034887
529,51365,WALLINGFORD,Emmet,IA,32,51365,58440957
530,51366,WEBB,Clay,IA,21,51366,163894539
531,51401,CARROLL,Carroll,IA,14,51401,454121000
532,51430,ARCADIA,Carroll,IA,14,51430,105531033
533,51431,ARTHUR,Ida,IA,47,51431,101935208
534,51433,AUBURN,Sac,IA,81,51433,147355553
535,51436,BREDA,Carroll,IA,14,51436,156790205
536,51439,CHARTER OAK,Crawford,IA,24,51439,223476837
537,51440,DEDHAM,Carroll,IA,14,51440,66015871
538,51441,DELOIT,Crawford,IA,24,51441,40266915
539,51442,DENISON,Crawford,IA,24,51442,448677639
540,51443,GLIDDEN,Carroll,IA,14,51443,276442701
541,51444,HALBUR,Carroll,IA,14,51444,422230
542,51445,IDA GROVE,Ida,IA,47,51445,327873042
543,51446,IRWIN,Shelby,IA,83,51446,90274738
544,51447,KIRKMAN,Shelby,IA,83,51447,90268943
545,51448,KIRON,Crawford,IA,24,51448,144043445
546,51449,LAKE CITY,Calhoun,IA,13,51449,232944822
547,51450,LAKE VIEW,Sac,IA,81,51450,157595822
548,51451,LANESBORO,Carroll,IA,14,51451,955449
549,51453,LOHRVILLE,Calhoun,IA,13,51453,223339647
550,51454,MANILLA,Crawford,IA,24,51454,259313231
551,51455,MANNING,Carroll,IA,14,51455,287004925
552,51458,ODEBOLT,Sac,IA,81,51458,245407583
553,51459,RALSTON,Carroll,IA,14,51459,1355933
554,51461,SCHLESWIG,Crawford,IA,24,51461,130196128
555,51462,SCRANTON,Greene,IA,37,51462,281553969
556,51463,TEMPLETON,Carroll,IA,14,51463,77535941
557,51465,VAIL,Crawford,IA,24,51465,141104728
558,51466,WALL LAKE,Sac,IA,81,51466,134548626
559,51467,WESTSIDE,Crawford,IA,24,51467,168975493
560,51501,COUNCIL BLUFFS,Pottawattamie,IA,78,51501,68663347
561,51503,COUNCIL BLUFFS,Pottawattamie,IA,78,51503,311311378
562,51510,CARTER LAKE,Pottawattamie,IA,78,51510,5228569
563,51520,ARION,Crawford,IA,24,51520,48585455
564,51521,AVOCA,Pottawattamie,IA,78,51521,223264160
565,51523,BLENCOE,Monona,IA,67,51523,134969227
566,51525,CARSON,Pottawattamie,IA,78,51525,158290149
567,51526,CRESCENT,Pottawattamie,IA,78,51526,111333068
568,51527,DEFIANCE,Shelby,IA,83,51527,101109924
569,51528,DOW CITY,Crawford,IA,24,51528,189885849
570,51529,DUNLAP,Harrison,IA,43,51529,333953737
571,51530,EARLING,Shelby,IA,83,51530,140370471
572,51531,ELK HORN,Shelby,IA,83,51531,73952439
573,51532,ELLIOTT,Montgomery,IA,69,51532,147809710
574,51533,EMERSON,Mills,IA,65,51533,213641636
575,51534,GLENWOOD,Mills,IA,65,51534,260803050
576,51535,GRISWOLD,Cass,IA,15,51535,337126792
577,51536,HANCOCK,Pottawattamie,IA,78,51536,124955843
578,51537,HARLAN,Shelby,IA,83,51537,422332929
579,51540,HASTINGS,Mills,IA,65,51540,141382464
580,51541,HENDERSON,Mills,IA,65,51541,106735256
581,51542,HONEY CREEK,Pottawattamie,IA,78,51542,92880710
582,51543,KIMBALLTON,Audubon,IA,5,51543,57402651
583,51544,LEWIS,Cass,IA,15,51544,145135032
584,51545,LITTLE SIOUX,Harrison,IA,43,51545,116122152
585,51546,LOGAN,Harrison,IA,43,51546,293310022
586,51548,MC CLELLAND,Pottawattamie,IA,78,51548,64393248
587,51549,MACEDONIA,Pottawattamie,IA,78,51549,84699901
588,51550,MAGNOLIA,Harrison,IA,43,51550,1456103
589,51551,MALVERN,Mills,IA,65,51551,210796119
590,51552,MARNE,Cass,IA,15,51552,91256513
591,51553,MINDEN,Pottawattamie,IA,78,51553,118587348
592,51554,MINEOLA,Mills,IA,65,51554,6840874
593,51555,MISSOURI VALLEY,Harrison,IA,43,51555,410136654
594,51556,MODALE,Harrison,IA,43,51556,117494595
595,51557,MONDAMIN,Harrison,IA,43,51557,181091843
596,51558,MOORHEAD,Monona,IA,67,51558,213388981
597,51559,NEOLA,Pottawattamie,IA,78,51559,220723262
598,51560,OAKLAND,Pottawattamie,IA,78,51560,254891645
599,51561,PACIFIC JUNCTION,Mills,IA,65,51561,159384280
600,51562,PANAMA,Shelby,IA,83,51562,87966803
601,51563,PERSIA,Harrison,IA,43,51563,142269566
602,51564,PISGAH,Harrison,IA,43,51564,103461051
603,51565,PORTSMOUTH,Shelby,IA,83,51565,126128110
604,51566,RED OAK,Montgomery,IA,69,51566,457891547
605,51570,SHELBY,Shelby,IA,83,51570,166695973
606,51571,SILVER CITY,Mills,IA,65,51571,121369661
607,51572,SOLDIER,Monona,IA,67,51572,114390965
608,51573,STANTON,Montgomery,IA,69,51573,156152123
609,51575,TREYNOR,Pottawattamie,IA,78,51575,126569658
610,51576,UNDERWOOD,Pottawattamie,IA,78,51576,130453907
611,51577,WALNUT,Pottawattamie,IA,78,51577,206979038
612,51578,WESTPHALIA,Shelby,IA,83,51578,96684
613,51579,WOODBINE,Harrison,IA,43,51579,301420886
614,51601,SHENANDOAH,Page,IA,73,51601,276342590
615,51630,BLANCHARD,Page,IA,73,51630,65739953
616,51631,BRADDYVILLE,Page,IA,73,51631,95851302
617,51632,CLARINDA,Page,IA,73,51632,540669979
618,51636,COIN,Page,IA,73,51636,144434643
619,51637,COLLEGE SPRINGS,Page,IA,73,51637,4185566
620,51638,ESSEX,Page,IA,73,51638,220766642
621,51639,FARRAGUT,Fremont,IA,36,51639,186791020
622,51640,HAMBURG,Fremont,IA,36,51640,313989946
623,51645,IMOGENE,Fremont,IA,36,51645,107043333
624,51646,NEW MARKET,Taylor,IA,87,51646,162903928
625,51647,NORTHBORO,Page,IA,73,51647,49689882
626,51648,PERCIVAL,Fremont,IA,36,51648,130838045
627,51649,RANDOLPH,Fremont,IA,36,51649,106334486
628,51650,RIVERTON,Fremont,IA,36,51650,78508646
629,51652,SIDNEY,Fremont,IA,36,51652,200054769
630,51653,TABOR,Fremont,IA,36,51653,89512532
631,51654,THURMAN,Fremont,IA,36,51654,137790111
632,51656,YORKTOWN,Page,IA,73,51656,438077
633,52001,DUBUQUE,Dubuque,IA,31,52001,75057763
634,52002,DUBUQUE,Dubuque,IA,31,52002,74769470
635,52003,DUBUQUE,Dubuque,IA,31,52003,151954104
636,52030,ANDREW,Jackson,IA,49,52030,690483
637,52031,BELLEVUE,Jackson,IA,49,52031,448070077
638,52032,BERNARD,Jackson,IA,49,52032,272572418
639,52033,CASCADE,Jones,IA,53,52033,252635822
640,52035,COLESBURG,Clayton,IA,22,52035,139028244
641,52037,DELMAR,Clinton,IA,23,52037,176775293
642,52038,DUNDEE,Delaware,IA,28,52038,76611993
643,52039,DURANGO,Dubuque,IA,31,52039,91068312
644,52040,DYERSVILLE,Dubuque,IA,31,52040,157748966
645,52041,EARLVILLE,Delaware,IA,28,52041,155040397
646,52042,EDGEWOOD,Clayton,IA,22,52042,161463192
647,52043,ELKADER,Clayton,IA,22,52043,258435335
648,52044,ELKPORT,Clayton,IA,22,52044,31383574
649,52045,EPWORTH,Dubuque,IA,31,52045,123925080
650,52046,FARLEY,Dubuque,IA,31,52046,119196635
651,52047,FARMERSBURG,Clayton,IA,22,52047,88328123
652,52048,GARBER,Clayton,IA,22,52048,85789255
653,52049,GARNAVILLO,Clayton,IA,22,52049,188393273
654,52050,GREELEY,Delaware,IA,28,52050,84028046
655,52052,GUTTENBERG,Clayton,IA,22,52052,249000350
656,52053,HOLY CROSS,Dubuque,IA,31,52053,154540299
657,52054,LA MOTTE,Jackson,IA,49,52054,138186180
658,52057,MANCHESTER,Delaware,IA,28,52057,362350079
659,52060,MAQUOKETA,Jackson,IA,49,52060,409835195
660,52064,MILES,Jackson,IA,49,52064,107540582
661,52065,NEW VIENNA,Dubuque,IA,31,52065,131382162
662,52066,NORTH BUENA VISTA,Clayton,IA,22,52066,681956
663,52068,PEOSTA,Dubuque,IA,31,52068,120418986
664,52069,PRESTON,Jackson,IA,49,52069,133277674
665,52070,SABULA,Jackson,IA,49,52070,154415679
666,52072,SAINT OLAF,Clayton,IA,22,52072,87106056
667,52073,SHERRILL,Dubuque,IA,31,52073,139623458
668,52074,SPRAGUEVILLE,Jackson,IA,49,52074,80684903
669,52076,STRAWBERRY POINT,Clayton,IA,22,52076,252900986
670,52077,VOLGA,Clayton,IA,22,52077,83729150
671,52078,WORTHINGTON,Dubuque,IA,31,52078,106290071
672,52079,ZWINGLE,Jackson,IA,49,52079,153776141
673,52101,DECORAH,Winneshiek,IA,96,52101,804622162
674,52132,CALMAR,Winneshiek,IA,96,52132,157379001
675,52133,CASTALIA,Winneshiek,IA,96,52133,118295514
676,52134,CHESTER,Howard,IA,45,52134,77559488
677,52135,CLERMONT,Fayette,IA,33,52135,67561964
678,52136,CRESCO,Howard,IA,45,52136,552444562
679,52140,DORCHESTER,Allamakee,IA,3,52140,201586040
680,52141,ELGIN,Fayette,IA,33,52141,216938945
681,52142,FAYETTE,Fayette,IA,33,52142,189331878
682,52144,FORT ATKINSON,Winneshiek,IA,96,52144,194119174
683,52146,HARPERS FERRY,Allamakee,IA,3,52146,221678469
684,52147,HAWKEYE,Fayette,IA,33,52147,187912171
685,52151,LANSING,Allamakee,IA,3,52151,324670969
686,52154,LAWLER,Chickasaw,IA,19,52154,189966484
687,52155,LIME SPRINGS,Howard,IA,45,52155,274895155
688,52156,LUANA,Clayton,IA,22,52156,110195420
689,52157,MC GREGOR,Clayton,IA,22,52157,149443621
690,52158,MARQUETTE,Clayton,IA,22,52158,3357585
691,52159,MONONA,Clayton,IA,22,52159,197141302
692,52160,NEW ALBIN,Allamakee,IA,3,52160,103702081
693,52161,OSSIAN,Winneshiek,IA,96,52161,140304657
694,52162,POSTVILLE,Allamakee,IA,3,52162,258921418
695,52163,PROTIVIN,Howard,IA,45,52163,4602409
696,52164,RANDALIA,Fayette,IA,33,52164,65306405
697,52165,RIDGEWAY,Winneshiek,IA,96,52165,172290350
698,52166,SAINT LUCAS,Fayette,IA,33,52166,493739
699,52168,SPILLVILLE,Winneshiek,IA,96,52168,417415
700,52169,WADENA,Fayette,IA,33,52169,77089638
701,52170,WATERVILLE,Allamakee,IA,3,52170,120174634
702,52171,WAUCOMA,Fayette,IA,33,52171,205897170
703,52171,WAUCOMA,Fayette,IA,33,52171,205897170
704,52172,WAUKON,Allamakee,IA,3,52172,409930314
705,52175,WEST UNION,Fayette,IA,33,52175,224708583
706,52201,AINSWORTH,Washington,IA,92,52201,171814169
707,52202,ALBURNETT,Linn,IA,57,52202,65295077
708,52203,AMANA,Iowa,IA,48,52203,119753928
709,52205,ANAMOSA,Jones,IA,53,52205,309946308
710,52206,ATKINS,Benton,IA,6,52206,73245916
711,52207,BALDWIN,Jackson,IA,49,52207,102173612
712,52208,BELLE PLAINE,Benton,IA,6,52208,150729430
713,52209,BLAIRSTOWN,Benton,IA,6,52209,95402594
714,52210,BRANDON,Buchanan,IA,10,52210,90462642
715,52211,BROOKLYN,Poweshiek,IA,79,52211,236939306
716,52212,CENTER JUNCTION,Jones,IA,53,52212,60790568
717,52213,CENTER POINT,Linn,IA,57,52213,194486805
718,52214,CENTRAL CITY,Linn,IA,57,52214,247622502
719,52215,CHELSEA,Tama,IA,86,52215,224182198
720,52216,CLARENCE,Cedar,IA,16,52216,146950128
721,52217,CLUTIER,Tama,IA,86,52217,152367658
722,52218,COGGON,Linn,IA,57,52218,187432341
723,52219,PRAIRIEBURG,Linn,IA,57,52219,1194124
724,52220,CONROY,Iowa,IA,48,52220,1194245
725,52221,GUERNSEY,Poweshiek,IA,79,52221,53776053
726,52222,DEEP RIVER,Poweshiek,IA,79,52222,209152349
727,52223,DELHI,Delaware,IA,28,52223,127619807
728,52224,DYSART,Tama,IA,86,52224,256593612
729,52225,ELBERON,Tama,IA,86,52225,91276214
730,52227,ELY,Linn,IA,57,52227,76013553
731,52228,FAIRFAX,Linn,IA,57,52228,96928032
732,52229,GARRISON,Benton,IA,6,52229,127391906
733,52231,HARPER,Keokuk,IA,54,52231,84735151
734,52232,HARTWICK,Poweshiek,IA,79,52232,47517446
735,52233,HIAWATHA,Linn,IA,57,52233,9080084
736,52235,HILLS,Johnson,IA,52,52235,5257012
737,52236,HOMESTEAD,Iowa,IA,48,52236,74148178
738,52237,HOPKINTON,Delaware,IA,28,52237,210461938
739,52240,IOWA CITY,Johnson,IA,52,52240,415571318
740,52241,CORALVILLE,Johnson,IA,52,52241,30871305
741,52242,IOWA CITY,Johnson,IA,52,52242,1995678
742,52245,IOWA CITY,Johnson,IA,52,52245,21712859
743,52246,IOWA CITY,Johnson,IA,52,52246,23832009
744,52246,IOWA CITY,Johnson,IA,52,52246,23832009
745,52247,KALONA,Washington,IA,92,52247,206350122
746,52248,KEOTA,Washington,IA,92,52248,295236835
747,52249,KEYSTONE,Benton,IA,6,52249,131160363
748,52251,LADORA,Iowa,IA,48,52251,106339173
749,52253,LISBON,Linn,IA,57,52253,121480006
750,52254,LOST NATION,Clinton,IA,23,52254,146759383
751,52255,LOWDEN,Cedar,IA,16,52255,112408307
752,52257,LUZERNE,Benton,IA,6,52257,40665450
753,52301,MARENGO,Iowa,IA,48,52301,316484635
754,52302,MARION,Linn,IA,57,52302,192237746
755,52305,MARTELLE,Jones,IA,53,52305,73493573
756,52306,MECHANICSVILLE,Cedar,IA,16,52306,194245557
757,52307,MIDDLE AMANA,Iowa,IA,48,52307,488234
758,52308,MILLERSBURG,Iowa,IA,48,52308,233003
759,52309,MONMOUTH,Jackson,IA,49,52309,74291839
760,52310,MONTICELLO,Jones,IA,53,52310,385183593
761,52312,MORLEY,Jones,IA,53,52312,242872
762,52313,MOUNT AUBURN,Benton,IA,6,52313,84959546
763,52314,MOUNT VERNON,Linn,IA,57,52314,155658054
764,52315,NEWHALL,Benton,IA,6,52315,75003645
765,52316,NORTH ENGLISH,Iowa,IA,48,52316,180293861
766,52317,NORTH LIBERTY,Johnson,IA,52,52317,95897591
767,52318,NORWAY,Benton,IA,6,52318,95080335
768,52320,OLIN,Jones,IA,53,52320,153985129
769,52321,ONSLOW,Jones,IA,53,52321,77841390
770,52322,OXFORD,Johnson,IA,52,52322,231220008
771,52323,OXFORD JUNCTION,Jones,IA,53,52323,132353794
772,52324,PALO,Linn,IA,57,52324,107056042
773,52325,PARNELL,Iowa,IA,48,52325,109143193
774,52326,QUASQUETON,Buchanan,IA,10,52326,5447918
775,52327,RIVERSIDE,Washington,IA,92,52327,217607612
776,52328,ROBINS,Linn,IA,57,52328,7989464
777,52329,ROWLEY,Buchanan,IA,10,52329,132090802
778,52330,RYAN,Delaware,IA,28,52330,123160697
779,52332,SHELLSBURG,Benton,IA,6,52332,110692089
780,52333,SOLON,Johnson,IA,52,52333,234514567
781,52334,SOUTH AMANA,Iowa,IA,48,52334,43109728
782,52335,SOUTH ENGLISH,Keokuk,IA,54,52335,144712437
783,52336,SPRINGVILLE,Linn,IA,57,52336,127253732
784,52337,STANWOOD,Cedar,IA,16,52337,70714333
785,52338,SWISHER,Johnson,IA,52,52338,88823370
786,52339,TAMA,Tama,IA,86,52339,265108854
787,52340,TIFFIN,Johnson,IA,52,52340,42940483
788,52341,TODDVILLE,Linn,IA,57,52341,34645440
789,52342,TOLEDO,Tama,IA,86,52342,232660911
790,52345,URBANA,Benton,IA,6,52345,8460683
791,52346,VAN HORNE,Benton,IA,6,52346,134845571
792,52347,VICTOR,Iowa,IA,48,52347,166647034
793,52348,VINING,Tama,IA,86,52348,2376982
794,52349,VINTON,Benton,IA,6,52349,382672144
795,52351,WALFORD,Benton,IA,6,52351,2136430
796,52352,WALKER,Linn,IA,57,52352,205022618
797,52353,WASHINGTON,Washington,IA,92,52353,395338718
798,52354,WATKINS,Benton,IA,6,52354,76593832
799,52355,WEBSTER,Keokuk,IA,54,52355,95209770
800,52356,WELLMAN,Washington,IA,92,52356,232407800
801,52358,WEST BRANCH,Cedar,IA,16,52358,200939529
802,52359,WEST CHESTER,Washington,IA,92,52359,38168572
803,52361,WILLIAMSBURG,Iowa,IA,48,52361,330197198
804,52362,WYOMING,Jones,IA,53,52362,157429942
805,52401,CEDAR RAPIDS,Linn,IA,57,52401,3464505
806,52402,CEDAR RAPIDS,Linn,IA,57,52402,36420817
807,52403,CEDAR RAPIDS,Linn,IA,57,52403,69523743
808,52404,CEDAR RAPIDS,Linn,IA,57,52404,142933490
809,52405,CEDAR RAPIDS,Linn,IA,57,52405,38493180
810,52411,CEDAR RAPIDS,Linn,IA,57,52411,44635019
811,52501,OTTUMWA,Wapello,IA,90,52501,591297871
812,52530,AGENCY,Wapello,IA,90,52530,36986236
813,52531,ALBIA,Monroe,IA,68,52531,563107904
814,52533,BATAVIA,Jefferson,IA,51,52533,227778322
815,52534,BEACON,Mahaska,IA,62,52534,1012395
816,52535,BIRMINGHAM,Van Buren,IA,89,52535,149696508
817,52536,BLAKESBURG,Wapello,IA,90,52536,160133711
818,52537,BLOOMFIELD,Davis,IA,26,52537,900130186
819,52540,BRIGHTON,Jefferson,IA,51,52540,257681662
820,52542,CANTRIL,Van Buren,IA,89,52542,117166206
821,52543,CEDAR,Mahaska,IA,62,52543,53398057
822,52544,CENTERVILLE,Appanoose,IA,4,52544,355984819
823,52548,CHILLICOTHE,Wapello,IA,90,52548,622729
824,52549,CINCINNATI,Appanoose,IA,4,52549,113382459
825,52550,DELTA,Keokuk,IA,54,52550,100697091
826,52551,DOUDS,Van Buren,IA,89,52551,151969068
827,52552,DRAKESVILLE,Davis,IA,26,52552,151883138
828,52553,EDDYVILLE,Wapello,IA,90,52553,218424094
829,52554,ELDON,Wapello,IA,90,52554,94705759
830,52555,EXLINE,Appanoose,IA,4,52555,64737097
831,52556,FAIRFIELD,Jefferson,IA,51,52556,458484550
832,52557,FAIRFIELD,Jefferson,IA,51,52557,116099
833,52560,FLORIS,Davis,IA,26,52560,91932554
834,52561,FREMONT,Mahaska,IA,62,52561,90172828
835,52563,HEDRICK,Keokuk,IA,54,52563,299151430
836,52565,KEOSAUQUA,Van Buren,IA,89,52565,307637735
837,52566,KIRKVILLE,Wapello,IA,90,52566,2692350
838,52567,LIBERTYVILLE,Jefferson,IA,51,52567,73121919
839,52569,MELROSE,Monroe,IA,68,52569,249170073
840,52570,MILTON,Van Buren,IA,89,52570,177637484
841,52571,MORAVIA,Appanoose,IA,4,52571,276402554
842,52572,MOULTON,Appanoose,IA,4,52572,252233684
843,52573,MOUNT STERLING,Van Buren,IA,89,52573,74630386
844,52574,MYSTIC,Appanoose,IA,4,52574,109572946
845,52576,OLLIE,Keokuk,IA,54,52576,117180743
846,52577,OSKALOOSA,Mahaska,IA,62,52577,415772496
847,52580,PACKWOOD,Jefferson,IA,51,52580,98765465
848,52581,PLANO,Appanoose,IA,4,52581,102818704
849,52583,PROMISE CITY,Wayne,IA,93,52583,120716306
850,52584,PULASKI,Davis,IA,26,52584,58551231
851,52585,RICHLAND,Keokuk,IA,54,52585,145900379
852,52586,ROSE HILL,Mahaska,IA,62,52586,122508394
853,52588,SELMA,Van Buren,IA,89,52588,26887357
854,52590,SEYMOUR,Wayne,IA,93,52590,194526072
855,52591,SIGOURNEY,Keokuk,IA,54,52591,327849389
856,52593,UDELL,Appanoose,IA,4,52593,42505876
857,52594,UNIONVILLE,Appanoose,IA,4,52594,121987222
858,52595,UNIVERSITY PARK,Mahaska,IA,62,52595,1193986
859,52601,BURLINGTON,Des Moines,IA,29,52601,312025320
860,52619,ARGYLE,Lee,IA,56,52619,95322544
861,52620,BONAPARTE,Van Buren,IA,89,52620,139397291
862,52621,CRAWFORDSVILLE,Washington,IA,92,52621,109582868
863,52623,DANVILLE,Des Moines,IA,29,52623,151439917
864,52624,DENMARK,Lee,IA,56,52624,1656465
865,52625,DONNELLSON,Lee,IA,56,52625,285245058
866,52626,FARMINGTON,Van Buren,IA,89,52626,247437264
867,52627,FORT MADISON,Lee,IA,56,52627,188414662
868,52630,HILLSBORO,Henry,IA,44,52630,109946731
869,52632,KEOKUK,Lee,IA,56,52632,140470022
870,52635,LOCKRIDGE,Jefferson,IA,51,52635,112512335
871,52637,MEDIAPOLIS,Des Moines,IA,29,52637,172041910
872,52638,MIDDLETOWN,Des Moines,IA,29,52638,88521308
873,52639,MONTROSE,Lee,IA,56,52639,117469873
874,52640,MORNING SUN,Louisa,IA,58,52640,188643645
875,52641,MOUNT PLEASANT,Henry,IA,44,52641,551763610
876,52644,MOUNT UNION,Henry,IA,44,52644,111080445
877,52645,NEW LONDON,Henry,IA,44,52645,185650036
878,52646,OAKVILLE,Louisa,IA,58,52646,155005489
879,52647,OLDS,Henry,IA,44,52647,911591
880,52649,SALEM,Henry,IA,44,52649,119399466
881,52650,SPERRY,Des Moines,IA,29,52650,104495885
882,52651,STOCKPORT,Van Buren,IA,89,52651,156669871
883,52653,WAPELLO,Louisa,IA,58,52653,312475210
884,52654,WAYLAND,Henry,IA,44,52654,136065742
885,52655,WEST BURLINGTON,Des Moines,IA,29,52655,42564530
886,52656,WEST POINT,Lee,IA,56,52656,247274743
887,52657,SAINT PAUL,Lee,IA,56,52657,494762
888,52658,WEVER,Lee,IA,56,52658,131240990
889,52659,WINFIELD,Henry,IA,44,52659,159819459
890,52660,YARMOUTH,Des Moines,IA,29,52660,57367543
891,52701,ANDOVER,Clinton,IA,23,52701,1643828
892,52720,ATALISSA,Muscatine,IA,70,52720,110127460
893,52721,BENNETT,Cedar,IA,16,52721,108698097
894,52722,BETTENDORF,Scott,IA,82,52722,73161625
895,52726,BLUE GRASS,Scott,IA,82,52726,94823134
896,52727,BRYANT,Clinton,IA,23,52727,63081901
897,52728,BUFFALO,Scott,IA,82,52728,5764558
898,52729,CALAMUS,Clinton,IA,23,52729,108881384
899,52730,CAMANCHE,Clinton,IA,23,52730,101243411
900,52731,CHARLOTTE,Clinton,IA,23,52731,136590407
901,52732,CLINTON,Clinton,IA,23,52732,310704633
902,52737,COLUMBUS CITY,Louisa,IA,58,52737,607264
903,52738,COLUMBUS JUNCTION,Louisa,IA,58,52738,323191180
904,52739,CONESVILLE,Muscatine,IA,70,52739,89211035
905,52742,DE WITT,Clinton,IA,23,52742,304142776
906,52745,DIXON,Scott,IA,82,52745,74381611
907,52746,DONAHUE,Scott,IA,82,52746,68807314
908,52747,DURANT,Cedar,IA,16,52747,56094151
909,52748,ELDRIDGE,Scott,IA,82,52748,107004915
910,52749,FRUITLAND,Muscatine,IA,70,52749,5218220
911,52750,GOOSE LAKE,Clinton,IA,23,52750,78435746
912,52751,GRAND MOUND,Clinton,IA,23,52751,129085616
913,52752,GRANDVIEW,Louisa,IA,58,52752,984227
914,52753,LE CLAIRE,Scott,IA,82,52753,68492183
915,52754,LETTS,Muscatine,IA,70,52754,186005712
916,52755,LONE TREE,Johnson,IA,52,52755,157930258
917,52756,LONG GROVE,Scott,IA,82,52756,111107641
918,52757,LOW MOOR,Clinton,IA,23,52757,3069924
919,52758,MC CAUSLAND,Scott,IA,82,52758,1745891
920,52760,MOSCOW,Muscatine,IA,70,52760,58900339
921,52761,MUSCATINE,Muscatine,IA,70,52761,482973608
922,52765,NEW LIBERTY,Scott,IA,82,52765,78185471
923,52766,NICHOLS,Muscatine,IA,70,52766,119401548
924,52767,PLEASANT VALLEY,Scott,IA,82,52767,3354642
925,52768,PRINCETON,Scott,IA,82,52768,89481384
926,52769,STOCKTON,Muscatine,IA,70,52769,106726313
927,52769,STOCKTON,Muscatine,IA,70,52769,106726313
928,52772,TIPTON,Cedar,IA,16,52772,342328096
929,52773,WALCOTT,Scott,IA,82,52773,145837805
930,52774,WELTON,Clinton,IA,23,52774,728977
931,52776,WEST LIBERTY,Muscatine,IA,70,52776,219678908
932,52777,WHEATLAND,Clinton,IA,23,52777,139946616
933,52778,WILTON,Muscatine,IA,70,52778,215972375
934,52801,DAVENPORT,Scott,IA,82,52801,1359908
935,52802,DAVENPORT,Scott,IA,82,52802,29294412
936,52803,DAVENPORT,Scott,IA,82,52803,14068035
937,52804,DAVENPORT,Scott,IA,82,52804,88861422
938,52806,DAVENPORT,Scott,IA,82,52806,79448284
939,52807,DAVENPORT,Scott,IA,82,52807,76469440
